H1 CPF 01  gfz 2021 09 16 00  7591 tandemx   
H2 1003001  6202 36605    2021 09 16 00 59 42 2021 09 21 00 00 42   120 1 1  0 0 0
H9
10 0 59475  12942.000000  0     384899.917   1377945.541   6727274.803
10 0 59475  13062.000000  0    1132121.318   1874198.875   6520388.694
10 0 59475  13182.000000  0    1867871.140   2324765.164   6198896.993
10 0 59475  13302.000000  0    2578434.135   2722090.339   5768419.292
10 0 59475  13422.000000  0    3250402.560   3059779.823   5236489.176
10 0 59475  13542.000000  0    3870932.734   3332704.600   4612427.913
10 0 59475  13662.000000  0    4427993.194   3537081.473   3907185.632
10 0 59475  13782.000000  0    4910604.820   3670527.448   3133155.516
10 0 59475  13902.000000  0    5309065.486   3732086.196   2303954.700
10 0 59475  14022.000000  0    5615150.310   3722223.437   1434182.527
10 0 59475  14142.000000  0    5822286.108   3642794.218    539158.337
10 0 59475  14262.000000  0    5925693.907   3496980.767   -365356.580
10 0 59475  14382.000000  0    5922495.317   3289202.661  -1263445.353
10 0 59475  14502.000000  0    5811780.798   3025001.936  -2139324.148
10 0 59475  14622.000000  0    5594637.466   2710906.775  -2977626.218
10 0 59475  14742.000000  0    5274137.648   2354277.274  -3763675.902
10 0 59475  14862.000000  0    4855289.024   1963136.762  -4483747.472
10 0 59475  14982.000000  0    4344945.173   1545992.838  -5125303.191
10 0 59475  15102.000000  0    3751682.692   1111653.942  -5677203.981
10 0 59475  15222.000000  0    3085648.483    669045.944  -6129893.787
10 0 59475  15342.000000  0    2358378.928    227031.553  -6475554.234
10 0 59475  15462.000000  0    1582596.688   -205763.048  -6708227.518
10 0 59475  15582.000000  0     771989.303   -621112.231  -6823909.624
10 0 59475  15702.000000  0     -59030.397  -1011343.344  -6820612.065
10 0 59475  15822.000000  0    -895574.895  -1369474.051  -6698390.614
10 0 59475  15942.000000  0   -1722541.735  -1689333.807  -6459345.240
10 0 59475  16062.000000  0   -2524880.311  -1965668.448  -6107587.998
10 0 59475  16182.000000  0   -3287859.573  -2194225.317  -5649179.199
10 0 59475  16302.000000  0   -3997335.258  -2371819.397  -5092034.938
10 0 59475  16422.000000  0   -4640014.067  -2496378.672  -4445802.246
10 0 59475  16542.000000  0   -5203706.886  -2566966.978  -3721702.733
10 0 59475  16662.000000  0   -5677567.378  -2583784.201  -2932347.130
10 0 59475  16782.000000  0   -6052310.423  -2548142.767  -2091521.528
10 0 59475  16902.000000  0   -6320404.209  -2462421.013  -1213949.080
10 0 59475  17022.000000  0   -6476231.496  -2329993.933   -315030.770
10 0 59475  17142.000000  0   -6516214.629  -2155142.542    589429.693
10 0 59475  17262.000000  0   -6438901.345  -1942943.751   1483511.343
10 0 59475  17382.000000  0   -6245007.306  -1699143.585   2351465.931
10 0 59475  17502.000000  0   -5937413.645  -1430017.237   3178004.185
10 0 59475  17622.000000  0   -5521122.228  -1142219.172   3948572.704
10 0 59475  17742.000000  0   -5003166.523   -842627.053   4649616.715
10 0 59475  17862.000000  0   -4392482.497   -538184.201   5268818.818
10 0 59475  17982.000000  0   -3699746.409   -235744.618   5795313.889
10 0 59475  18102.000000  0   -2937179.328     58077.072   6219877.263
10 0 59475  18222.000000  0   -2118323.256    337046.647   6535080.932
10 0 59475  18342.000000  0   -1257794.920    595438.410   6735417.405
10 0 59475  18462.000000  0    -371021.720    828150.189   6817390.017
10 0 59475  18582.000000  0     526035.201   1030802.450   6779569.438
10 0 59475  18702.000000  0    1417167.245   1199820.127   6622616.967
10 0 59475  18822.000000  0    2286210.330   1332496.111   6349273.674
10 0 59475  18942.000000  0    3117337.456   1427034.628   5964315.787
10 0 59475  19062.000000  0    3895349.032   1482574.368   5474476.628
10 0 59475  19182.000000  0    4605953.766   1499190.796   4888333.772
10 0 59475  19302.000000  0    5236036.317   1477878.485   4216166.444
10 0 59475  19422.000000  0    5773909.800   1420512.934   3469780.221
10 0 59475  19542.000000  0    6209541.782   1329792.871   2662299.558
10 0 59475  19662.000000  0    6534750.316   1209162.708   1807936.887
10 0 59475  19782.000000  0    6743366.874   1062719.058    921738.367
10 0 59475  19902.000000  0    6831359.236    895102.280     19312.194
10 0 59475  20022.000000  0    6796913.120    711375.936   -883454.672
10 0 59475  20142.000000  0    6640467.414    516897.173  -1770686.017
10 0 59475  20262.000000  0    6364703.781    317181.155  -2626802.945
10 0 59475  20382.000000  0    5974492.591    117763.643  -3436803.105
10 0 59475  20502.000000  0    5476796.004    -75934.772  -4186526.830
10 0 59475  20622.000000  0    4880530.196   -258739.433  -4862904.250
10 0 59475  20742.000000  0    4196392.343   -425843.864  -5454177.211
10 0 59475  20862.000000  0    3436658.917   -572921.342  -5950095.398
10 0 59475  20982.000000  0    2614957.581   -696224.227  -6342084.719
10 0 59475  21102.000000  0    1746017.501   -792667.702  -6623383.667
10 0 59475  21222.000000  0     845405.678   -859897.712  -6789148.503
10 0 59475  21342.000000  0     -70748.935   -896342.130  -6836528.649
10 0 59475  21462.000000  0    -986038.796   -901243.287  -6764709.428
10 0 59475  21582.000000  0   -1884064.290   -874672.892  -6574924.972
10 0 59475  21702.000000  0   -2748721.337   -817528.119  -6270438.787
10 0 59475  21822.000000  0   -3564483.095   -731509.654  -5856492.753
10 0 59475  21942.000000  0   -4316675.427   -619081.877  -5340228.085
10 0 59475  22062.000000  0   -4991742.606   -483415.197  -4730573.144
10 0 59475  22182.000000  0   -5577495.763   -328312.049  -4038100.614
10 0 59475  22302.000000  0   -6063342.262   -158117.576  -3274855.247
10 0 59475  22422.000000  0   -6440488.891     22384.366  -2454151.467
10 0 59475  22542.000000  0   -6702114.226    208086.639  -1590345.789
10 0 59475  22662.000000  0   -6843505.989    393684.553   -698585.808
10 0 59475  22782.000000  0   -6862157.191    573807.191    205461.018
10 0 59475  22902.000000  0   -6757816.847    743152.178   1105889.089
10 0 59475  23022.000000  0   -6532497.875    896619.998   1986841.954
10 0 59475  23142.000000  0   -6190439.292   1029444.382   2832801.096
10 0 59475  23262.000000  0   -5738022.452   1137315.410   3628868.282
10 0 59475  23382.000000  0   -5183643.913   1216491.923   4361034.289
10 0 59475  23502.000000  0   -4537549.914   1263900.727   5016428.231
10 0 59475  23622.000000  0   -3811637.092   1277219.840   5583543.351
10 0 59475  23742.000000  0   -3019224.889   1254944.575   6052436.491
10 0 59475  23862.000000  0   -2174803.510   1196434.772   6414899.010
10 0 59475  23982.000000  0   -1293761.724   1101942.974   6664595.079
10 0 59475  24102.000000  0    -392102.364    972621.974   6797164.993
10 0 59475  24222.000000  0     513848.616    810512.426   6810295.773
10 0 59475  24342.000000  0    1407736.717    618510.491   6703758.756
10 0 59475  24462.000000  0    2273472.854    400316.505   6479413.405
10 0 59475  24582.000000  0    3095522.181    160364.880   6141177.741
10 0 59475  24702.000000  0    3859184.717    -96263.922   5694964.816
10 0 59475  24822.000000  0    4550861.494   -363947.871   5148584.581
10 0 59475  24942.000000  0    5158302.269   -636642.127   4511613.286
10 0 59475  25062.000000  0    5670830.310   -908010.369   3795230.751
10 0 59475  25182.000000  0    6079539.956  -1171566.076   3012027.748
10 0 59475  25302.000000  0    6377461.323  -1420820.398   2175784.500
10 0 59475  25422.000000  0    6559687.968  -1649432.484   1301225.312
10 0 59475  25542.000000  0    6623464.096  -1851359.678    403754.289
10 0 59475  25662.000000  0    6568229.567  -2021004.503   -500824.029
10 0 59475  25782.000000  0    6395618.969  -2153351.968  -1396592.509
10 0 59475  25902.000000  0    6109417.073  -2244095.708  -2267810.187
10 0 59475  26022.000000  0    5715470.421  -2289748.836  -3099196.150
10 0 59475  26142.000000  0    5221558.993  -2287736.840  -3876201.148
10 0 59475  26262.000000  0    4637232.898  -2236470.989  -4585262.457
10 0 59475  26382.000000  0    3973617.393  -2135400.858  -5214038.186
10 0 59475  26502.000000  0    3243190.426  -1985044.825  -5751615.362
10 0 59475  26622.000000  0    2459540.951  -1786998.067  -6188688.508
10 0 59475  26742.000000  0    1637113.723  -1543918.617  -6517710.435
10 0 59475  26862.000000  0     790941.632  -1259491.513  -6733012.251
10 0 59475  26982.000000  0     -63626.510   -938372.827  -6830890.337
10 0 59475  27102.000000  0    -911199.074   -586114.109  -6809662.642
10 0 59475  27222.000000  0   -1736612.093   -209068.548  -6669694.560
10 0 59475  27342.000000  0   -2525194.591    185721.042  -6413392.624
10 0 59475  27462.000000  0   -3263023.026    590649.593  -6045166.991
10 0 59475  27582.000000  0   -3937163.350    997691.695  -5571364.690
10 0 59475  27702.000000  0   -4535898.672   1398555.626  -5000171.092
10 0 59475  27822.000000  0   -5048937.158   1784848.164  -4341481.003
10 0 59475  27942.000000  0   -5467596.877   2148247.728  -3606737.594
10 0 59475  28062.000000  0   -5784961.884   2480680.100  -2808742.269
10 0 59475  28182.000000  0   -5996007.901   2774494.495  -1961437.798
10 0 59475  28302.000000  0   -6097692.994   3022635.853  -1079666.714
10 0 59475  28422.000000  0   -6089010.076   3218809.172   -178909.268
10 0 59475  28542.000000  0   -5970999.279   3357630.808    724994.334
10 0 59475  28662.000000  0   -5746717.792   3434762.285   1616131.369
10 0 59475  28782.000000  0   -5421168.356   3447023.946   2478805.691
10 0 59475  28902.000000  0   -5001188.843   3392484.754   3297822.508
10 0 59475  29022.000000  0   -4495306.114   3270526.128   4058763.399
10 0 59475  29142.000000  0   -3913556.810   3081877.804   4748244.965
10 0 59475  29262.000000  0   -3267281.700   2828625.736   5354154.914
10 0 59475  29382.000000  0   -2568897.895   2514193.135   5865864.372
99
